OBJECT_NAME,OBJECT_ID,EPOCH,MEAN_MOTION,ECCENTRICITY,INCLINATION,RA_OF_ASC_NODE,ARG_OF_PERICENTER,MEAN_ANOMALY,EPHEMERIS_TYPE,CLASSIFICATION_TYPE,NORAD_CAT_ID,ELEMENT_SET_NO,REV_AT_EPOCH,BSTAR,MEAN_MOTION_DOT,MEAN_MOTION_DDOT
STARLINK-38073,2026-159M,2026-07-21T14:00:01.999872,15.80828927,.00011788,97.2847,41.6418,81.5765,273.3525,0,U,69986,999,288,-.13471348E-4,-.2723E-4,0
STARLINK-38099,2026-159N,2026-07-21T14:00:01.999872,15.80829607,.00013351,97.2846,41.6434,89.9180,269.2820,0,U,69987,999,288,-.17572161E-4,-.3509E-4,0
STARLINK-38064,2026-159P,2026-07-21T14:00:01.999872,15.80835039,.000153,97.2850,41.6468,85.4592,282.2930,0,U,69988,999,288,-.13551012E-3,-.26044E-3,0
STARLINK-38080,2026-159Q,2026-07-21T14:00:01.999872,15.80833990,.00013325,97.2847,41.6453,86.8575,276.6179,0,U,69989,999,288,-.91557502E-4,-.17658E-3,0
STARLINK-38070,2026-159R,2026-07-21T14:00:01.999872,15.80825108,.00008561,97.2848,41.6485,103.9706,268.0554,0,U,69990,999,288,.41030944E-4,.7728E-4,0
STARLINK-38042,2026-159S,2026-07-21T14:00:01.999872,15.80836364,.00013681,97.2847,41.6507,88.6862,287.6095,0,U,69991,999,288,-.97703003E-4,-.18834E-3,0
STARLINK-38071,2026-159T,2026-07-21T14:00:01.999872,15.80831196,.00012898,97.2849,41.6523,70.1197,310.4512,0,U,69992,999,288,-.34390749E-4,-.6729E-4,0
STARLINK-38082,2026-159U,2026-07-21T14:00:01.999872,15.80857555,.00009589,97.2849,41.6545,51.7590,333.0332,0,U,69993,999,288,.45985675E-4,.8692E-4,0
STARLINK-38090,2026-159V,2026-07-21T14:00:01.999872,15.80826155,.00011892,97.2850,41.6560,85.0812,304.0404,0,U,69994,999,288,-.10095548E-4,-.2076E-4,0
STARLINK-38084,2026-159W,2026-07-21T14:00:01.999872,15.80826519,.00016839,97.2849,41.6582,83.8153,309.5783,0,U,69995,999,288,-.6128956E-5,-.1316E-4,0
STARLINK-38085,2026-159X,2026-07-21T14:00:01.999872,15.80825039,.00013859,97.2851,41.6603,92.8450,304.8258,0,U,69996,999,288,.2074057E-5,.256E-5,0
STARLINK-38091,2026-159Y,2026-07-21T14:00:01.999872,15.80826044,.00013687,97.2850,41.6620,81.6442,320.3003,0,U,69997,999,288,-.12230241E-4,-.2485E-4,0
STARLINK-38086,2026-159Z,2026-07-21T14:00:01.999872,15.80805620,.00017636,97.2852,41.6639,80.0147,326.2020,0,U,69998,999,288,.24595961E-3,.47206E-3,0
SARAMAGO,2026-067CY,2026-07-21T14:51:30.322944,15.20538405,.0005856,97.4596,160.7401,238.8468,121.2194,0,U,100000,999,1693,.36892579E-3,.8008E-4,0
SOYUZ-MS 29,2026-162A,2026-07-21T04:27:10.178208,15.49071756,.00068493,51.6316,131.8443,320.6461,39.4029,0,U,100057,999,57627,.11479289E-3,.5896E-4,0
