{"epoch":1784710044,"count":18256,"objects":[{"id":"69986","name":"STARLINK-38073","type":"PAYLOAD","l1":"1 69986U 26159M   26202.58335648 -.00002723  00000-0 -13471-4 0  9991","l2":"2 69986  97.2847  41.6418 0001179  81.5765 273.3525 15.80828927  2886"},{"id":"69987","name":"STARLINK-38099","type":"PAYLOAD","l1":"1 69987U 26159N   26202.58335648 -.00003509  00000-0 -17572-4 0  9991","l2":"2 69987  97.2846  41.6434 0001335  89.9180 269.2820 15.80829607  2889"},{"id":"69988","name":"STARLINK-38064","type":"PAYLOAD","l1":"1 69988U 26159P   26202.58335648 -.00026044  00000-0 -13551-3 0  9993","l2":"2 69988  97.2850  41.6468 0001530  85.4592 282.2930 15.80835039  2880"},{"id":"69989","name":"STARLINK-38080","type":"PAYLOAD","l1":"1 69989U 26159Q   26202.58335648 -.00017658  00000-0 -91558-4 0  9999","l2":"2 69989  97.2847  41.6453 0001332  86.8575 276.6179 15.80833990  2883"},{"id":"69990","name":"STARLINK-38070","type":"PAYLOAD","l1":"1 69990U 26159R   26202.58335648  .00007728  00000-0  41031-4 0  9997","l2":"2 69990  97.2848  41.6485 0000856 103.9706 268.0554 15.80825108  2882"},{"id":"69991","name":"STARLINK-38042","type":"PAYLOAD","l1":"1 69991U 26159S   26202.58335648 -.00018834  00000-0 -97703-4 0  9997","l2":"2 69991  97.2847  41.6507 0001368  88.6862 287.6095 15.80836364  2881"},{"id":"69992","name":"STARLINK-38071","type":"PAYLOAD","l1":"1 69992U 26159T   26202.58335648 -.00006729  00000-0 -34391-4 0  9992","l2":"2 69992  97.2849  41.6523 0001290  70.1197 310.4512 15.80831196  2880"},{"id":"69993","name":"STARLINK-38082","type":"PAYLOAD","l1":"1 69993U 26159U   26202.58335648  .00008692  00000-0  45986-4 0  9994","l2":"2 69993  97.2849  41.6545 0000959  51.7590 333.0332 15.80857555  2886"},{"id":"69994","name":"STARLINK-38090","type":"PAYLOAD","l1":"1 69994U 26159V   26202.58335648 -.00002076  00000-0 -10096-4 0  9991","l2":"2 69994  97.2850  41.6560 0001189  85.0812 304.0404 15.80826155  2889"},{"id":"69995","name":"STARLINK-38084","type":"PAYLOAD","l1":"1 69995U 26159W   26202.58335648 -.00001316  00000-0 -61290-5 0  9991","l2":"2 69995  97.2849  41.6582 0001684  83.8153 309.5783 15.80826519  2880"},{"id":"69996","name":"STARLINK-38085","type":"PAYLOAD","l1":"1 69996U 26159X   26202.58335648  .00000256  00000-0  20741-5 0  9998","l2":"2 69996  97.2851  41.6603 0001386  92.8450 304.8258 15.80825039  2888"},{"id":"69997","name":"STARLINK-38091","type":"PAYLOAD","l1":"1 69997U 26159Y   26202.58335648 -.00002485  00000-0 -12230-4 0  9990","l2":"2 69997  97.2850  41.6620 0001369  81.6442 320.3003 15.80826044  2883"},{"id":"69998","name":"STARLINK-38086","type":"PAYLOAD","l1":"1 69998U 26159Z   26202.58335648  .00047206  00000-0  24596-3 0  9996","l2":"2 69998  97.2852  41.6639 0001764  80.0147 326.2020 15.80805620  2881"},{"id":"100000","name":"SARAMAGO","type":"PAYLOAD","l1":"1 A0000U 26067CY  26202.61910096  .00008008  00000-0  36893-3 0  9993","l2":"2 A0000  97.4596 160.7401 0005856 238.8468 121.2194 15.20538405 16936"},{"id":"100057","name":"SOYUZ MS-29","type":"PAYLOAD","l1":"1 A0057U 26162A   26202.18553447  .00005896  00000-0  11479-3 0  9991","l2":"2 A0057  51.6316 131.8443 0006849 320.6461  39.4029 15.49071756576278"}]}